{
    "CCSDS_OMM_VERS": "3.0",
    "COMMENT": "GENERATED VIA SPACE-TRACK.ORG API",
    "CREATION_DATE": "2025-05-22T17:14:14",
    "ORIGINATOR": "18 SPCS",
    "OBJECT_NAME": "GALILEO 9 (205)",
    "OBJECT_ID": "2015-045A",
    "CENTER_NAME": "EARTH",
    "REF_FRAME": "TEME",
    "TIME_SYSTEM": "UTC",
    "MEAN_ELEMENT_THEORY": "SGP4",
    "EPOCH": "2025-05-21T09:33:07.652736",
    "MEAN_MOTION": "1.70473981",
    "ECCENTRICITY": "0.00035200",
    "INCLINATION": "55.0759",
    "RA_OF_ASC_NODE": "232.4271",
    "ARG_OF_PERICENTER": "38.4706",
    "MEAN_ANOMALY": "321.5943",
    "EPHEMERIS_TYPE": "0",
    "CLASSIFICATION_TYPE": "U",
    "NORAD_CAT_ID": "40889",
    "ELEMENT_SET_NO": "999",
    "REV_AT_EPOCH": "6033",
    "BSTAR": "0.00000000000000",
    "MEAN_MOTION_DOT": "0.00000004",
    "MEAN_MOTION_DDOT": "0.0000000000000",
    "SEMIMAJOR_AXIS": "29600.322",
    "PERIOD": "844.704",
    "APOAPSIS": "23232.607",
    "PERIAPSIS": "23211.768",
    "OBJECT_TYPE": "PAYLOAD",
    "RCS_SIZE": "LARGE",
    "COUNTRY_CODE": "ESA",
    "LAUNCH_DATE": "2015-09-11",
    "SITE": "FRGUI",
    "DECAY_DATE": null,
    "FILE": "4736220",
    "GP_ID": "288143729",
    "TLE_LINE0": "0 GALILEO 9 (205)",
    "TLE_LINE1": "1 40889U 15045A   25141.39800524  .00000004  00000-0  00000-0 0  9992",
    "TLE_LINE2": "2 40889  55.0759 232.4271 0003520  38.4706 321.5943  1.70473981 60330"
}